GLOBALSTAR M023 [+]     
1 25621U 99004A   23296.17499493 -.00000072  00000+0  17579-3 0  9997
2 25621  52.0097  89.5181 0009137 228.1693 303.4186 12.62443473139569
GLOBALSTAR M040 [-]     
1 25622U 99004B   23296.75422420 -.00000078  00000+0  14622-3 0  9990
2 25622  51.9904  91.0305 0001356 120.7481 253.4877 12.61957862139199
GLOBALSTAR M036 [-]     
1 25623U 99004C   23296.48976034 -.00000046  00000+0  53487-3 0  9993
2 25623  51.9998  28.8289 0010447 342.1323  99.4657 11.86554569107437
GLOBALSTAR M038 [-]     
1 25624U 99004D   23296.38534763 -.00000067  00000+0  22896-3 0  9995
2 25624  52.0002   7.5062 0001554 222.3089 217.8190 12.32486309128042
GLOBALSTAR M022 [-]     
1 25649U 99012A   23296.85695469 -.00000033  00000+0  64529-3 0  9996
2 25649  52.0012 128.2680 0003558  67.1541  36.4228 12.02471479103916
GLOBALSTAR M041 [-]     
1 25650U 99012B   23296.89772181 -.00000106  00000+0 -26196-3 0  9999
2 25650  52.0047 351.2479 0002031 201.7987 158.2764 11.96644707106172
GLOBALSTAR M046 [-]     
1 25651U 99012C   23296.86094896 -.00000016  00000+0  79897-3 0  9992
2 25651  52.0030 100.3727 0003050 119.6456  30.9934 12.09377323110783
GLOBALSTAR M037 [+]     
1 25652U 99012D   23296.52353728 -.00000085  00000+0  10442-3 0  9995
2 25652  52.0000 219.3102 0001483 317.7004 213.4673 12.62386579135155
